STARLINK-6068           
1 56798U 23078AH  23170.91667824  .00074407  00000+0  61605-3 0  9993
2 56798  70.0006 358.0762 0003697 274.3156  25.5573 15.69885498  1308
STARLINK-5953           
1 56799U 23078AJ  23170.91667824  .00038442  00000+0  32033-3 0  9996
2 56799  70.0009 358.0624 0003715 274.0414  36.5539 15.69898012  1304
STARLINK-6036           
1 56800U 23078AK  23170.91667824  .00053249  00000+0  44231-3 0  9994
2 56800  70.0008 358.0761 0003771 271.6718  28.7979 15.69894840  1306
STARLINK-6087           
1 56801U 23078AL  23170.91667824  .00073501  00000+0  60868-3 0  9992
2 56801  70.0008 358.0678 0003656 273.1770  33.2471 15.69884095  1300
STARLINK-6070           
1 56802U 23078AM  23170.91667824  .00069944  00000+0  57952-3 0  9999
2 56802  70.0009 358.0732 0003653 271.8916  30.3635 15.69885481  1307
STARLINK-6029           
1 56803U 23078AN  23170.91667824  .00070925  00000+0  58750-3 0  9998
2 56803  70.0008 358.0688 0003672 274.3995  30.8321 15.69887606  1301
STARLINK-6069           
1 56804U 23078AP  23170.91667824  .00077105  00000+0  63824-3 0  9994
2 56804  70.0007 358.0745 0003650 273.0142  28.6460 15.69881156  1304
STARLINK-6064           
1 56805U 23078AQ  23170.91667824  .00064045  00000+0  53106-3 0  9996
2 56805  70.0009 358.0693 0003678 273.2208  31.4169 15.69890189  1308
STARLINK-6072           
1 56806U 23078AR  23170.91667824  .00075807  00000+0  62754-3 0  9994
2 56806  70.0007 358.0719 0003676 277.3746  26.0721 15.69884319  1308
STARLINK-6073           
1 56807U 23078AS  23170.91667824  .00073712  00000+0  61040-3 0  9995
2 56807  70.0009 358.0631 0003540 279.1620  30.8348 15.69884713  1301
STARLINK-6042           
1 56808U 23078AT  23170.91667824  .00068477  00000+0  56742-3 0  9991
2 56808  70.0008 358.0642 0003679 276.8530  32.5493 15.69888815  1307
STARLINK-6040           
1 56809U 23078AU  23170.91667824  .00043949  00000+0  36576-3 0  9992
2 56809  70.0008 358.0630 0003686 275.2235  33.5859 15.69896237  1302
STARLINK-6031           
1 56810U 23078AV  23170.91667824  .00069295  00000+0  57417-3 0  9993
2 56810  70.0009 358.0696 0003670 273.3074  32.5200 15.69886645  1301
STARLINK-6063           
1 56811U 23078AW  23170.91667824  .00067862  00000+0  56240-3 0  9995
2 56811  70.0011 358.0603 0003685 268.1743  43.6072 15.69887789  1304
STARLINK-6065           
1 56812U 23078AX  23170.91667824  .00074704  00000+0  61851-3 0  9993
2 56812  70.0007 358.0660 0003605 273.4291  34.7816 15.69884803  1303
STARLINK-6056           
1 56813U 23078AY  23170.91667824  .00064926  00000+0  53823-3 0  9999
2 56813  70.0012 358.0602 0003651 275.8734  36.5051 15.69892783  1302
STARLINK-6059           
1 56814U 23078AZ  23170.91667824  .00068745  00000+0  56958-3 0  9995
2 56814  70.0008 358.0621 0003642 275.9766  35.2093 15.69890287  1304
STARLINK-6057           
1 56815U 23078BA  23170.91667824  .00073903  00000+0  61196-3 0  9998
2 56815  70.0012 358.0583 0003679 275.7829  37.7884 15.69884411  1302
STARLINK-6067           
1 56816U 23078BB  23170.91667824  .00064710  00000+0  53642-3 0  9992
2 56816  70.0010 358.0606 0003625 274.3275  38.6425 15.69894561  1306
STARLINK-5982           
1 56817U 23078BC  23170.91667824  .00072378  00000+0  59939-3 0  9997
2 56817  70.0012 358.0655 0003588 274.8261  32.1929 15.69888069  1305
STARLINK-6028           
1 56818U 23078BD  23170.83334491  .00058146  00000+0  48275-3 0  9998
2 56818  70.0009 358.2923 0003858 272.7515 290.5863 15.69884296  1306
STARLINK-30119          
1 56823U 23079A   23170.83334491 -.01640732  00000+0 -25362-1 0  9996
2 56823  43.0006 122.1161 0002122 255.9925  79.3798 15.56198980  1306
STARLINK-30120          
1 56824U 23079B   23170.83334491 -.01642695  00000+0 -25381-1 0  9998
2 56824  43.0007 122.1149 0002224 257.6115  78.2632 15.56213457  1309
STARLINK-30084          
1 56825U 23079C   23170.83334491 -.01645738  00000+0 -25430-1 0  9995
2 56825  43.0005 122.1138 0000791 276.4947  59.8682 15.56229699  1300
STARLINK-30114          
1 56826U 23079D   23170.83334491  .00261849  00000+0  15396-2 0  9991
2 56826  43.0031 121.6494 0003092 180.9647 343.4707 15.76688416  1300
STARLINK-30151          
1 56827U 23079E   23170.83334491 -.01636317  00000+0 -25235-1 0  9993
2 56827  43.0007 122.1115 0002081 257.2151  80.1285 15.56253404  1304
STARLINK-30152          
1 56828U 23079F   23170.83334491 -.01639665  00000+0 -25276-1 0  9998
2 56828  43.0007 122.1116 0002042 256.8765  80.9533 15.56271031  1309
STARLINK-30139          
1 56829U 23079G   23170.83334491  .00544245  12619-3  14398-2 0  9992
2 56829  43.0040 120.2760 0004151 244.3929 107.4860 15.93859801  1304
STARLINK-30134          
1 56830U 23079H   23170.78499005  .00325806  47432-4  10135-2 0  9998
2 56830  43.0049 120.7645 0003342 271.8182  88.2311 15.90811794  3225
STARLINK-30128          
1 56832U 23079K   23170.83334491  .00357933  00000+0  11475-2 0  9992
2 56832  43.0034 120.6050 0005013 230.0740 352.2104 15.89291753  1300
STARLINK-30131          
1 56833U 23079L   23170.83334491  .00064291  00000+0  44038-3 0  9997
2 56833  43.0035 121.4324 0002017 245.5469   6.6476 15.73859155  1306
STARLINK-30069          
1 56834U 23079M   23170.83334491 -.01642686  00000+0 -25274-1 0  9990
2 56834  43.0006 122.1059 0001824 248.8387  90.9639 15.56329726  1302
STARLINK-30144          
1 56835U 23079N   23170.83334491 -.01642715  00000+0 -25254-1 0  9992
2 56835  43.0007 122.1052 0002367 260.3846  79.8970 15.56346090  1306
STARLINK-30142          
1 56836U 23079P   23170.83334491 -.01637072  00000+0 -25152-1 0  9990
2 56836  43.0007 122.1045 0001982 263.3226  77.4552 15.56355798  1301
STARLINK-30133          
1 56837U 23079Q   23170.83334491 -.01639010  00000+0 -25152-1 0  9995
2 56837  43.0007 122.1012 0002162 263.5710  78.1671 15.56389088  1306
STARLINK-30123          
1 56838U 23079R   23170.83334491 -.01437159  00000+0 -14128-1 0  9997
2 56838  43.0007 121.7311 0001290 291.8349 200.0367 15.67803589  1304
STARLINK-30076          
1 56839U 23079S   23170.83334491 -.01640009  00000+0 -25157-1 0  9992
2 56839  43.0007 122.1004 0001900 270.2516  71.9745 15.56404329  1306
STARLINK-30073          
1 56840U 23079T   23170.91667824 -.00637369  00000+0 -48719-2 0  9996
2 56840  43.0016 121.0539 0001066 267.6484  46.4158 15.73056761  1303
STARLINK-30078          
1 56841U 23079U   23170.91667824 -.01683992  00000+0 -26149-1 0  9993
2 56841  43.0006 121.6079 0001543 250.9871 199.6547 15.56162075  1303
STARLINK-30135          
1 56842U 23079V   23170.91667824 -.01656507  00000+0 -19446-1 0  9998
2 56842  43.0008 121.0961 0002165 249.5660  47.6019 15.63852615  1301
STARLINK-30137          
1 56843U 23079W   23170.91667824 -.01654646  00000+0 -19276-1 0  9992
2 56843  43.0009 121.0906 0001651 256.0158  43.3929 15.64046014  1308
STARLINK-30136          
1 56844U 23079X   23170.91667824 -.01655088  00000+0 -18659-1 0  9998
2 56844  43.0009 121.0706 0001864 252.2001  55.1867 15.64861036  1309
DRAGON CRS-28           
1 56845U 23080A   23170.50332658  .00013700  00000+0  24603-3 0  9994
2 56845  51.6410 317.0466 0004517  59.2520 300.8913 15.50178988402152
SZ-15 MODULE            
1 56873U 22162C   23170.61045767  .00025774  00000+0  32383-3 0  9997
2 56873  41.4846 141.3272 0004952  65.4161 294.7193 15.59087391  2376
LONGJIANG 3             
1 56874U 23082A   23170.87469354  .00010991  00000+0  46128-3 0  9997
2 56874  49.1333 212.1140 0006813 312.7443 219.0503 15.23852070  1631
2023-086A               
1 57045U 23086A   23170.70377192 -.00000207  00000+0  00000+0 0  9997
2 57045  27.8906  71.2460 7868860 180.2795  42.7583  1.48272594    12
